{
    "links": {
        "self": "http://www.neowsapp.com/rest/v1/neo/3545628?api_key=iIulBulltgU6a56xZRHN4H3l9WmuAYTsLGpBGhQ2"
    },
    "id": "3545628",
    "neo_reference_id": "3545628",
    "name": "(2010 RC31)",
    "designation": "2010 RC31",
    "nasa_jpl_url": "http://ssd.jpl.nasa.gov/sbdb.cgi?sstr=3545628",
    "absolute_magnitude_h": 26.4,
    "estimated_diameter": {
        "kilometers": {
            "estimated_diameter_min": 0.0139493823,
            "estimated_diameter_max": 0.0311917671
        },
        "meters": {
            "estimated_diameter_min": 13.9493822934,
            "estimated_diameter_max": 31.1917670523
        },
        "miles": {
            "estimated_diameter_min": 0.0086677416,
            "estimated_diameter_max": 0.0193816595
        },
        "feet": {
            "estimated_diameter_min": 45.7656914036,
            "estimated_diameter_max": 102.3351970157
        }
    },
    "is_potentially_hazardous_asteroid": false,
    "close_approach_data": [
        {
            "close_approach_date": "2010-08-29",
            "close_approach_date_full": "2010-Aug-29 03:34",
            "epoch_date_close_approach": 1283052840000,
            "relative_velocity": {
                "kilometers_per_second": "5.988251242",
                "kilometers_per_hour": "21557.7044712702",
                "miles_per_hour": "13395.1192032734"
            },
            "miss_distance": {
                "astronomical": "0.0684123273",
                "lunar": "26.6123953197",
                "kilometers": "10234338.445822851",
                "miles": "6359323.0245073038"
            },
            "orbiting_body": "Earth"
        }
    ],
    "orbital_data": {
        "orbit_id": "6",
        "orbit_determination_date": "2017-04-06 08:56:50",
        "first_observation_date": "2010-09-04",
        "last_observation_date": "2010-09-06",
        "data_arc_in_days": 2,
        "observations_used": 18,
        "orbit_uncertainty": "9",
        "minimum_orbit_intersection": ".0671515",
        "jupiter_tisserand_invariant": "3.428",
        "epoch_osculation": "2455444.5",
        "eccentricity": ".5225831849340987",
        "semi_major_axis": "2.257080798210697",
        "inclination": ".3985914674404634",
        "ascending_node_longitude": "309.9617515534713",
        "orbital_period": "1238.565806120615",
        "perihelion_distance": "1.077568326028153",
        "perihelion_argument": "24.35456908996913",
        "aphelion_distance": "3.43659327039324",
        "perihelion_time": "2455436.992562142447",
        "mean_anomaly": "2.182102570055842",
        "mean_motion": ".2906587588814334",
        "equinox": "J2000",
        "orbit_class": {
            "orbit_class_type": "AMO",
            "orbit_class_description": "Near-Earth asteroid orbits similar to that of 1221 Amor",
            "orbit_class_range": "1.017 AU < q (perihelion) < 1.3 AU"
        }
    },
    "is_sentry_object": false
}